{
    "links": {
        "self": "http://www.neowsapp.com/rest/v1/neo/3663743?api_key=iIulBulltgU6a56xZRHN4H3l9WmuAYTsLGpBGhQ2"
    },
    "id": "3663743",
    "neo_reference_id": "3663743",
    "name": "(2014 EN12)",
    "designation": "2014 EN12",
    "nasa_jpl_url": "http://ssd.jpl.nasa.gov/sbdb.cgi?sstr=3663743",
    "absolute_magnitude_h": 25.3,
    "estimated_diameter": {
        "kilometers": {
            "estimated_diameter_min": 0.0231502122,
            "estimated_diameter_max": 0.0517654482
        },
        "meters": {
            "estimated_diameter_min": 23.150212221,
            "estimated_diameter_max": 51.7654482198
        },
        "miles": {
            "estimated_diameter_min": 0.0143848705,
            "estimated_diameter_max": 0.0321655483
        },
        "feet": {
            "estimated_diameter_min": 75.9521422633,
            "estimated_diameter_max": 169.8341531374
        }
    },
    "is_potentially_hazardous_asteroid": false,
    "close_approach_data": [
        {
            "close_approach_date": "2014-03-15",
            "close_approach_date_full": "2014-Mar-15 07:44",
            "epoch_date_close_approach": 1394869440000,
            "relative_velocity": {
                "kilometers_per_second": "12.3101705926",
                "kilometers_per_hour": "44316.6141333672",
                "miles_per_hour": "27536.6205985914"
            },
            "miss_distance": {
                "astronomical": "0.0657873737",
                "lunar": "25.5912883693",
                "kilometers": "9841650.978414019",
                "miles": "6115318.3469067022"
            },
            "orbiting_body": "Earth"
        }
    ],
    "orbital_data": {
        "orbit_id": "5",
        "orbit_determination_date": "2017-04-06 08:42:08",
        "first_observation_date": "2014-03-08",
        "last_observation_date": "2014-03-12",
        "data_arc_in_days": 4,
        "observations_used": 22,
        "orbit_uncertainty": "9",
        "minimum_orbit_intersection": ".0496258",
        "jupiter_tisserand_invariant": "3.215",
        "epoch_osculation": "2456726.5",
        "eccentricity": ".6046761725734719",
        "semi_major_axis": "2.437789425880164",
        "inclination": "7.730119826886951",
        "ascending_node_longitude": "161.3368700399433",
        "orbital_period": "1390.249380599767",
        "perihelion_distance": ".9637162462988647",
        "perihelion_argument": "50.05378826463745",
        "aphelion_distance": "3.911862605461462",
        "perihelion_time": "2456759.272517229122",
        "mean_anomaly": "351.5136763467615",
        "mean_motion": ".2589463480607289",
        "equinox": "J2000",
        "orbit_class": {
            "orbit_class_type": "APO",
            "orbit_class_description": "Near-Earth asteroid orbits which cross the Earth’s orbit similar to that of 1862 Apollo",
            "orbit_class_range": "a (semi-major axis) > 1.0 AU; q (perihelion) < 1.017 AU"
        }
    },
    "is_sentry_object": false
}